[
    {
        "Altitude(m)": 617710.6739527436,
        "Argument of Periapsis(deg)": 0.0,
        "Eccentricity": 0.0,
        "Inclination(deg)": 60.0,
        "Latitude(deg)": -41.10275297676799,
        "Longitude(deg)": -5.033249876961334,
        "Mean Anomaly(deg)": -49.09089999999994,
        "RAAN(deg)": 125.00000000000001,
        "Satellite Name": "Test1 569",
        "Satellite Number": 569,
        "Semi-Major Axis(m)": 6980739.136638005,
        "Time(s)": 0
    },
    {
        "Altitude(m)": 617517.9719198714,
        "Argument of Periapsis(deg)": 0.00010418945913296404,
        "Eccentricity": 0.0,
        "Inclination(deg)": 60.0,
        "Latitude(deg)": -40.63695873479981,
        "Longitude(deg)": -4.5364575455444,
        "Mean Anomaly(deg)": -48.470793854538094,
        "RAAN(deg)": 124.99957995086027,
        "Satellite Name": "Test1 569",
        "Satellite Number": 569,
        "Semi-Major Axis(m)": 6980739.136638005,
        "Time(s)": 10
    },
    {
        "Altitude(m)": 617324.2927817242,
        "Argument of Periapsis(deg)": 0.0002083789182659281,
        "Eccentricity": 0.0,
        "Inclination(deg)": 60.0,
        "Latitude(deg)": -40.168639182536744,
        "Longitude(deg)": -4.0470930883431535,
        "Mean Anomaly(deg)": -47.85068770907631,
        "RAAN(deg)": 124.99915990172053,
        "Satellite Name": "Test1 569",
        "Satellite Number": 569,
        "Semi-Major Axis(m)": 6980739.136638005,
        "Time(s)": 20
    },
    {
        "Altitude(m)": 617129.7105193029,
        "Argument of Periapsis(deg)": 0.00031256837739889213,
        "Eccentricity": 0.0,
        "Inclination(deg)": 60.0,
        "Latitude(deg)": -39.697867451717684,
        "Longitude(deg)": -3.564972050280205,
        "Mean Anomaly(deg)": -47.230581563614464,
        "RAAN(deg)": 124.99873985258078,
        "Satellite Name": "Test1 569",
        "Satellite Number": 569,
        "Semi-Major Axis(m)": 6980739.136638005,
        "Time(s)": 30
    },
    {
        "Altitude(m)": 616934.2993623334,
        "Argument of Periapsis(deg)": 0.0004167578365318562,
        "Eccentricity": 0.0,
        "Inclination(deg)": 60.0,
        "Latitude(deg)": -39.224714451405106,
        "Longitude(deg)": -3.089912954551547,
        "Mean Anomaly(deg)": -46.61047541815263,
        "RAAN(deg)": 124.99831980344105,
        "Satellite Name": "Test1 569",
        "Satellite Number": 569,
        "Semi-Major Axis(m)": 6980739.136638005,
        "Time(s)": 40
    },
    {
        "Altitude(m)": 616738.1337568,
        "Argument of Periapsis(deg)": 0.0005209472956648203,
        "Eccentricity": 0.0,
        "Inclination(deg)": 60.0,
        "Latitude(deg)": -38.74924894038323,
        "Longitude(deg)": -2.621738325818812,
        "Mean Anomaly(deg)": -45.990369272690785,
        "RAAN(deg)": 124.99789975430129,
        "Satellite Name": "Test1 569",
        "Satellite Number": 569,
        "Semi-Major Axis(m)": 6980739.136638005,
        "Time(s)": 50
    },
    {
        "Altitude(m)": 616541.2883323586,
        "Argument of Periapsis(deg)": 0.0006251367547977843,
        "Eccentricity": 0.0,
        "Inclination(deg)": 60.0,
        "Latitude(deg)": -38.27153759806942,
        "Longitude(deg)": -2.1602741896456896,
        "Mean Anomaly(deg)": -45.37026312722895,
        "RAAN(deg)": 124.99747970516155,
        "Satellite Name": "Test1 569",
        "Satellite Number": 569,
        "Semi-Major Axis(m)": 6980739.136638005,
        "Time(s)": 60
    },
    {
        "Altitude(m)": 616343.8378696566,
        "Argument of Periapsis(deg)": 0.0007293262139307483,
        "Eccentricity": 0.0,
        "Inclination(deg)": 60.0,
        "Latitude(deg)": -37.79164509387078,
        "Longitude(deg)": -1.705349562179541,
        "Mean Anomaly(deg)": -44.7501569817671,
        "RAAN(deg)": 124.9970596560218,
        "Satellite Name": "Test1 569",
        "Satellite Number": 569,
        "Semi-Major Axis(m)": 6980739.136638005,
        "Time(s)": 70
    },
    {
        "Altitude(m)": 616145.8572675427,
        "Argument of Periapsis(deg)": 0.0008335156730637124,
        "Eccentricity": 0.0,
        "Inclination(deg)": 60.0,
        "Latitude(deg)": -37.309634154934166,
        "Longitude(deg)": -1.256797443991946,
        "Mean Anomaly(deg)": -44.13005083630533,
        "RAAN(deg)": 124.99663960688207,
        "Satellite Name": "Test1 569",
        "Satellite Number": 569,
        "Semi-Major Axis(m)": 6980739.136638005,
        "Time(s)": 80
    },
    {
        "Altitude(m)": 615947.4215102232,
        "Argument of Periapsis(deg)": 0.0009377051321966765,
        "Eccentricity": 0.0,
        "Inclination(deg)": 60.0,
        "Latitude(deg)": -36.82556563224119,
        "Longitude(deg)": -0.8144542932895482,
        "Mean Anomaly(deg)": -43.50994469084347,
        "RAAN(deg)": 124.99621955774232,
        "Satellite Name": "Test1 569",
        "Satellite Number": 569,
        "Semi-Major Axis(m)": 6980739.136638005,
        "Time(s)": 90
    },
    {
        "Altitude(m)": 615748.6056343382,
        "Argument of Periapsis(deg)": 0.0010418945913296407,
        "Eccentricity": 0.0,
        "Inclination(deg)": 60.0,
        "Latitude(deg)": -36.339498565022545,
        "Longitude(deg)": -0.37815949224741235,
        "Mean Anomaly(deg)": -42.88983854538159,
        "RAAN(deg)": 124.99579950860259,
        "Satellite Name": "Test1 569",
        "Satellite Number": 569,
        "Semi-Major Axis(m)": 6980739.136638005,
        "Time(s)": 100
    },
    {
        "Altitude(m)": 615549.4846960213,
        "Argument of Periapsis(deg)": 0.0011460840504626045,
        "Eccentricity": 0.0,
        "Inclination(deg)": 60.0,
        "Latitude(deg)": -35.85149024347325,
        "Longitude(deg)": 0.05224367985247967,
        "Mean Anomaly(deg)": -42.26973239991984,
        "RAAN(deg)": 124.99537945946284,
        "Satellite Name": "Test1 569",
        "Satellite Number": 569,
        "Semi-Major Axis(m)": 6980739.136638005,
        "Time(s)": 110
    },
    {
        "Altitude(m)": 615350.1337378988,
        "Argument of Periapsis(deg)": 0.0012502735095955685,
        "Eccentricity": 0.0,
        "Inclination(deg)": 60.0,
        "Latitude(deg)": -35.36159626975358,
        "Longitude(deg)": 0.4769085916878715,
        "Mean Anomaly(deg)": -41.649626254457964,
        "RAAN(deg)": 124.9949594103231,
        "Satellite Name": "Test1 569",
        "Satellite Number": 569,
        "Semi-Major Axis(m)": 6980739.136638005,
        "Time(s)": 120
    },
    {
        "Altitude(m)": 615150.6277560913,
        "Argument of Periapsis(deg)": 0.0013544629687285324,
        "Eccentricity": 0.0,
        "Inclination(deg)": 60.0,
        "Latitude(deg)": -34.869870617277236,
        "Longitude(deg)": 0.8959858096155822,
        "Mean Anomaly(deg)": -41.02952010899616,
        "RAAN(deg)": 124.99453936118336,
        "Satellite Name": "Test1 569",
        "Satellite Number": 569,
        "Semi-Major Axis(m)": 6980739.136638005,
        "Time(s)": 130
    },
    {
        "Altitude(m)": 614951.0416672173,
        "Argument of Periapsis(deg)": 0.0014586524278614966,
        "Eccentricity": 0.0,
        "Inclination(deg)": 60.0,
        "Latitude(deg)": -34.37636568829231,
        "Longitude(deg)": 1.3096221385578328,
        "Mean Anomaly(deg)": -40.409413963534334,
        "RAAN(deg)": 124.99411931204362,
        "Satellite Name": "Test1 569",
        "Satellite Number": 569,
        "Semi-Major Axis(m)": 6980739.136638005,
        "Time(s)": 140
    },
    {
        "Altitude(m)": 614751.4502753927,
        "Argument of Periapsis(deg)": 0.0015628418869944607,
        "Eccentricity": 0.0,
        "Inclination(deg)": 60.0,
        "Latitude(deg)": -33.8811323697628,
        "Longitude(deg)": 1.7179611792377312,
        "Mean Anomaly(deg)": -39.78930781807248,
        "RAAN(deg)": 124.99369926290387,
        "Satellite Name": "Test1 569",
        "Satellite Number": 569,
        "Semi-Major Axis(m)": 6980739.136638005,
        "Time(s)": 150
    },
    {
        "Altitude(m)": 614551.9282392988,
        "Argument of Periapsis(deg)": 0.0016670313461274247,
        "Eccentricity": 0.0,
        "Inclination(deg)": 60.0,
        "Latitude(deg)": -33.3842200875684,
        "Longitude(deg)": 2.1211438883826,
        "Mean Anomaly(deg)": -39.169201672610654,
        "RAAN(deg)": 124.99327921376414,
        "Satellite Name": "Test1 569",
        "Satellite Number": 569,
        "Semi-Major Axis(m)": 6980739.136638005,
        "Time(s)": 160
    },
    {
        "Altitude(m)": 614352.5500392563,
        "Argument of Periapsis(deg)": 0.0017712208052603888,
        "Eccentricity": 0.0,
        "Inclination(deg)": 60.0,
        "Latitude(deg)": -32.885676859046924,
        "Longitude(deg)": 2.5193076285577827,
        "Mean Anomaly(deg)": -38.54909552714885,
        "RAAN(deg)": 124.99285916462439,
        "Satellite Name": "Test1 569",
        "Satellite Number": 569,
        "Semi-Major Axis(m)": 6980739.136638005,
        "Time(s)": 170
    },
    {
        "Altitude(m)": 614153.3899443917,
        "Argument of Periapsis(deg)": 0.001875410264393353,
        "Eccentricity": 0.0,
        "Inclination(deg)": 60.0,
        "Latitude(deg)": -32.38554934389867,
        "Longitude(deg)": 2.912586732959462,
        "Mean Anomaly(deg)": -37.92898938168697,
        "RAAN(deg)": 124.99243911548466,
        "Satellite Name": "Test1 569",
        "Satellite Number": 569,
        "Semi-Major Axis(m)": 6980739.136638005,
        "Time(s)": 180
    },
    {
        "Altitude(m)": 613954.5219798696,
        "Argument of Periapsis(deg)": 0.0019795997235263173,
        "Eccentricity": 0.0,
        "Inclination(deg)": 60.0,
        "Latitude(deg)": -31.88388289348409,
        "Longitude(deg)": 3.301113071913694,
        "Mean Anomaly(deg)": -37.30888323622522,
        "RAAN(deg)": 124.99201906634491,
        "Satellite Name": "Test1 569",
        "Satellite Number": 569,
        "Semi-Major Axis(m)": 6980739.136638005,
        "Time(s)": 190
    }
]